{"type": "FeatureCollection", "features": [ {"type": "Feature", "properties": {"norad_id": 38146, "name": "FENGYUN 1C DEB", "group": "fengyun-1c-debris", "lat": -48.12503832688956, "lon": -113.78590510324509, "alt_km": 827.1050773477955, "timestamp": "2025-12-21T05:44:51.875747+00:00", "meta": {"OBJECT_NAME": "FENGYUN 1C DEB", "OBJECT_ID": "1999-025EQT", "EPOCH": "2025-12-18T00:08:51.919008", "MEAN_MOTION": 14.59286747, "ECCENTRICITY": 0.02022294, "INCLINATION": 99.4834, "RA_OF_ASC_NODE": 73.268, "ARG_OF_PERICENTER": 87.2264, "MEAN_ANOMALY": 84.0387, "EPHEMERIS_TYPE": 0, "CLASSIFICATION_TYPE": "U", "NORAD_CAT_ID": 38146, "ELEMENT_SET_NO": 999, "REV_AT_EPOCH": 31956, "BSTAR": 0.00063226228, "MEAN_MOTION_DOT": 3.907e-05, "MEAN_MOTION_DDOT": 0}, "tle": {"line1": "1 38146U 99025EQT 25352.00615647  .00003907  00000+0  63226-3 0  9993", "line2": "2 38146  99.4834  73.2680 0202229  87.2264  84.0387 14.59286747319560"}}, "geometry": {"type": "Point", "coordinates": [-113.78590510324509, -48.12503832688956]}}, {"type": "Feature", "properties": {"norad_id": 38147, "name": "FENGYUN 1C DEB", "group": "fengyun-1c-debris", "lat": 19.012939732535262, "lon": 6.256471920589467, "alt_km": 822.4424160323306, "timestamp": "2025-12-21T05:44:51.875757+00:00", "meta": {"OBJECT_NAME": "FENGYUN 1C DEB", "OBJECT_ID": "1999-025EQU", "EPOCH": "2025-12-20T07:43:36.428160", "MEAN_MOTION": 14.2346331, "ECCENTRICITY": 0.004968, "INCLINATION": 98.5569, "RA_OF_ASC_NODE": 8.3381, "ARG_OF_PERICENTER": 277.7736, "MEAN_ANOMALY": 81.7804, "EPHEMERIS_TYPE": 0, "CLASSIFICATION_TYPE": "U", "NORAD_CAT_ID": 38147, "ELEMENT_SET_NO": 999, "REV_AT_EPOCH": 60495, "BSTAR": 0.0004285192, "MEAN_MOTION_DOT": 9.43e-06, "MEAN_MOTION_DDOT": 0}, "tle": {"line1": "1 38147U 99025EQU 25354.32194940  .00000943  00000+0  42852-3 0  9998", "line2": "2 38147  98.5569   8.3381 0049680 277.7736  81.7804 14.23463310604955"}}, "geometry": {"type": "Point", "coordinates": [6.256471920589467, 19.012939732535262]}}, {"type": "Feature", "properties": {"norad_id": 38149, "name": "FENGYUN 1C DEB", "group": "fengyun-1c-debris", "lat": -55.97648409864381, "lon": 154.5059739157571, "alt_km": 822.2090681096033, "timestamp": "2025-12-21T05:44:51.875767+00:00", "meta": {"OBJECT_NAME": "FENGYUN 1C DEB", "OBJECT_ID": "1999-025EQW", "EPOCH": "2025-12-07T17:18:01.960128", "MEAN_MOTION": 14.25910713, "ECCENTRICITY": 0.00777044, "INCLINATION": 98.3566, "RA_OF_ASC_NODE": 334.1881, "ARG_OF_PERICENTER": 175.9559, "MEAN_ANOMALY": 184.2267, "EPHEMERIS_TYPE": 0, "CLASSIFICATION_TYPE": "U", "NORAD_CAT_ID": 38149, "ELEMENT_SET_NO": 999, "REV_AT_EPOCH": 70416, "BSTAR": 0.00036135678, "MEAN_MOTION_DOT": 8.47e-06, "MEAN_MOTION_DDOT": 0}, "tle": {"line1": "1 38149U 99025EQW 25341.72085602  .00000847  00000+0  36136-3 0  9995", "line2": "2 38149  98.3566 334.1881 0077704 175.9559 184.2267 14.25910713704169"}}, "geometry": {"type": "Point", "coordinates": [154.5059739157571, -55.97648409864381]}}, {"type": "Feature", "properties": {"norad_id": 38155, "name": "FENGYUN 1C DEB", "group": "fengyun-1c-debris", "lat": 30.338569154927374, "lon": 84.2571934990249, "alt_km": 758.1612558223796, "timestamp": "2025-12-21T05:44:51.875776+00:00", "meta": {"OBJECT_NAME": "FENGYUN 1C DEB", "OBJECT_ID": "1999-025ERC", "EPOCH": "2025-12-18T23:08:16.383264", "MEAN_MOTION": 14.25112386, "ECCENTRICITY": 0.00979258, "INCLINATION": 98.4473, "RA_OF_ASC_NODE": 257.0769, "ARG_OF_PERICENTER": 108.7402, "MEAN_ANOMALY": 252.4435, "EPHEMERIS_TYPE": 0, "CLASSIFICATION_TYPE": "U", "NORAD_CAT_ID": 38155, "ELEMENT_SET_NO": 999, "REV_AT_EPOCH": 63864, "BSTAR": 0.0016814228, "MEAN_MOTION_DOT": 4.107e-05, "MEAN_MOTION_DDOT": 0}, "tle": {"line1": "1 38155U 99025ERC 25352.96407851  .00004107  00000+0  16814-2 0  9997", "line2": "2 38155  98.4473 257.0769 0097925 108.7402 252.4435 14.25112386638644"}}, "geometry": {"type": "Point", "coordinates": [84.2571934990249, 30.338569154927374]}}, {"type": "Feature", "properties": {"norad_id": 38157, "name": "FENGYUN 1C DEB", "group": "fengyun-1c-debris", "lat": 77.07888268836413, "lon": 130.92280372485894, "alt_km": 616.5097376823433, "timestamp": "2025-12-21T05:44:51.875786+00:00", "meta": {"OBJECT_NAME": "FENGYUN 1C DEB", "OBJECT_ID": "1999-025ERE", "EPOCH": "2025-12-18T23:15:19.062432", "MEAN_MOTION": 14.21759135, "ECCENTRICITY": 0.02742522, "INCLINATION": 99.6569, "RA_OF_ASC_NODE": 260.5201, "ARG_OF_PERICENTER": 96.8894, "MEAN_ANOMALY": 266.356, "EPHEMERIS_TYPE": 0, "CLASSIFICATION_TYPE": "U", "NORAD_CAT_ID": 38157, "ELEMENT_SET_NO": 999, "REV_AT_EPOCH": 76336, "BSTAR": 0.00050562821, "MEAN_MOTION_DOT": 1.574e-05, "MEAN_MOTION_DDOT": 0}, "tle": {"line1": "1 38157U 99025ERE 25352.96897063  .00001574  00000+0  50563-3 0  9992", "line2": "2 38157  99.6569 260.5201 0274252  96.8894 266.3560 14.21759135763363"}}, "geometry": {"type": "Point", "coordinates": [130.92280372485894, 77.07888268836413]}}, {"type": "Feature", "properties": {"norad_id": 38159, "name": "FENGYUN 1C DEB", "group": "fengyun-1c-debris", "lat": -31.720021777086465, "lon": -107.08174065043126, "alt_km": 846.9354837663013, "timestamp": "2025-12-21T05:44:51.875798+00:00", "meta": {"OBJECT_NAME": "FENGYUN 1C DEB", "OBJECT_ID": "1999-025ERG", "EPOCH": "2025-12-04T22:05:20.152032", "MEAN_MOTION": 14.03448484, "ECCENTRICITY": 0.005704, "INCLINATION": 99.3156, "RA_OF_ASC_NODE": 230.39, "ARG_OF_PERICENTER": 2.347, "MEAN_ANOMALY": 357.7952, "EPHEMERIS_TYPE": 0, "CLASSIFICATION_TYPE": "U", "NORAD_CAT_ID": 38159, "ELEMENT_SET_NO": 999, "REV_AT_EPOCH": 83002, "BSTAR": 0.0010527, "MEAN_MOTION_DOT": 1.625e-05, "MEAN_MOTION_DDOT": 0}, "tle": {"line1": "1 38159U 99025ERG 25338.92037213  .00001625  00000+0  10527-2 0  9999", "line2": "2 38159  99.3156 230.3900 0057040   2.3470 357.7952 14.03448484830021"}}, "geometry": {"type": "Point", "coordinates": [-107.08174065043126, -31.720021777086465]}}, {"type": "Feature", "properties": {"norad_id": 38163, "name": "FENGYUN 1C DEB", "group": "fengyun-1c-debris", "lat": -35.937000731845096, "lon": 38.525916564219706, "alt_km": 893.4020016389431, "timestamp": "2025-12-21T05:44:51.875810+00:00", "meta": {"OBJECT_NAME": "FENGYUN 1C DEB", "OBJECT_ID": "1999-025ERL", "EPOCH": "2025-12-18T21:33:29.990592", "MEAN_MOTION": 14.05931251, "ECCENTRICITY": 0.00762702, "INCLINATION": 99.1281, "RA_OF_ASC_NODE": 29.4748, "ARG_OF_PERICENTER": 225.191, "MEAN_ANOMALY": 134.304, "EPHEMERIS_TYPE": 0, "CLASSIFICATION_TYPE": "U", "NORAD_CAT_ID": 38163, "ELEMENT_SET_NO": 999, "REV_AT_EPOCH": 24628, "BSTAR": 0.00077081788, "MEAN_MOTION_DOT": 1.25e-05, "MEAN_MOTION_DDOT": 0}, "tle": {"line1": "1 38163U 99025ERL 25352.89826378  .00001250  00000+0  77082-3 0  9998", "line2": "2 38163  99.1281  29.4748 0076270 225.1910 134.3040 14.05931251246287"}}, "geometry": {"type": "Point", "coordinates": [38.525916564219706, -35.937000731845096]}}, {"type": "Feature", "properties": {"norad_id": 38166, "name": "FENGYUN 1C DEB", "group": "fengyun-1c-debris", "lat": -66.84957550066693, "lon": -103.26612817377803, "alt_km": 819.5428369003239, "timestamp": "2025-12-21T05:44:51.875820+00:00", "meta": {"OBJECT_NAME": "FENGYUN 1C DEB", "OBJECT_ID": "1999-025ERP", "EPOCH": "2025-12-20T00:03:42.377184", "MEAN_MOTION": 14.31032215, "ECCENTRICITY": 0.00518518, "INCLINATION": 99.0785, "RA_OF_ASC_NODE": 97.4018, "ARG_OF_PERICENTER": 22.7918, "MEAN_ANOMALY": 337.5549, "EPHEMERIS_TYPE": 0, "CLASSIFICATION_TYPE": "U", "NORAD_CAT_ID": 38166, "ELEMENT_SET_NO": 999, "REV_AT_EPOCH": 63876, "BSTAR": 0.0016550954, "MEAN_MOTION_DOT": 4.376e-05, "MEAN_MOTION_DDOT": 0}, "tle": {"line1": "1 38166U 99025ERP 25354.00257381  .00004376  00000+0  16551-2 0  9993", "line2": "2 38166  99.0785  97.4018 0051851  22.7918 337.5549 14.31032215638760"}}, "geometry": {"type": "Point", "coordinates": [-103.26612817377803, -66.84957550066693]}}, {"type": "Feature", "properties": {"norad_id": 38169, "name": "FENGYUN 1C DEB", "group": "fengyun-1c-debris", "lat": -6.68398861656161, "lon": 149.26346783548772, "alt_km": 677.7976460408645, "timestamp": "2025-12-21T05:44:51.875830+00:00", "meta": {"OBJECT_NAME": "FENGYUN 1C DEB", "OBJECT_ID": "1999-025ERS", "EPOCH": "2025-12-17T04:37:40.598400", "MEAN_MOTION": 14.71570377, "ECCENTRICITY": 0.00320132, "INCLINATION": 98.9779, "RA_OF_ASC_NODE": 325.865, "ARG_OF_PERICENTER": 54.7995, "MEAN_ANOMALY": 305.6199, "EPHEMERIS_TYPE": 0, "CLASSIFICATION_TYPE": "U", "NORAD_CAT_ID": 38169, "ELEMENT_SET_NO": 999, "REV_AT_EPOCH": 61334, "BSTAR": 0.002130707, "MEAN_MOTION_DOT": 0.00013312, "MEAN_MOTION_DDOT": 0}, "tle": {"line1": "1 38169U 99025ERS 25351.19283100  .00013312  00000+0  21307-2 0  9996", "line2": "2 38169  98.9779 325.8650 0032013  54.7995 305.6199 14.71570377613347"}}, "geometry": {"type": "Point", "coordinates": [149.26346783548772, -6.68398861656161]}}, {"type": "Feature", "properties": {"norad_id": 38173, "name": "FENGYUN 1C DEB", "group": "fengyun-1c-debris", "lat": 7.348054413249703, "lon": 77.02238196787262, "alt_km": 757.1263875605127, "timestamp": "2025-12-21T05:44:51.875842+00:00", "meta": {"OBJECT_NAME": "FENGYUN 1C DEB", "OBJECT_ID": "1999-025ERW", "EPOCH": "2025-12-16T11:20:48.017472", "MEAN_MOTION": 14.37192423, "ECCENTRICITY": 0.01631615, "INCLINATION": 99.0007, "RA_OF_ASC_NODE": 250.8645, "ARG_OF_PERICENTER": 101.6732, "MEAN_ANOMALY": 260.2814, "EPHEMERIS_TYPE": 0, "CLASSIFICATION_TYPE": "U", "NORAD_CAT_ID": 38173, "ELEMENT_SET_NO": 999, "REV_AT_EPOCH": 60697, "BSTAR": 0.00064310917, "MEAN_MOTION_DOT": 2.179e-05, "MEAN_MOTION_DDOT": 0}, "tle": {"line1": "1 38173U 99025ERW 25350.47277798  .00002179  00000+0  64311-3 0  9999", "line2": "2 38173  99.0007 250.8645 0163161 101.6732 260.2814 14.37192423606974"}}, "geometry": {"type": "Point", "coordinates": [77.02238196787262, 7.348054413249703]}}]}